GLOBALSTAR M035         
1 25851U 99037A   25102.71514933 -.00000079  00000+0 -59629-3 0  9993
2 25851  51.9937 200.9750 0013885 233.0037 282.2488 11.04537317 89028
GLOBALSTAR M032         
1 25852U 99037B   25102.76856368 -.00000091  00000+0 -78118-3 0  9998
2 25852  51.9992  30.5614 0012306  57.1444 303.0539 11.19063289127468
GLOBALSTAR M051         
1 25853U 99037C   25102.68274642 -.00000076  00000+0 -10429-3 0  9993
2 25853  51.9783 198.9143 0001199 119.2370 240.8560 11.42204963124909
GLOBALSTAR M030         
1 25854U 99037D   25102.75044232 -.00000031  00000+0  93671-3 0  9992
2 25854  51.9917   9.0168 0003294 299.7707  60.2782 11.55103930142483
GLOBALSTAR M048         
1 25872U 99041A   25102.81834674 -.00000040  00000+0  81558-3 0  9992
2 25872  51.9335 131.0930 0013050  72.5263  97.9197 11.33856176117566
GLOBALSTAR M026         
1 25873U 99041B   25102.84278539  .00000068  00000+0  48697-2 0  9993
2 25873  52.0036 319.3408 0002068 135.5021 238.2422 11.06835264141256
GLOBALSTAR M043         
1 25874U 99041C   25102.84897931 -.00000106  00000+0 -11283-2 0  9993
2 25874  51.9393 236.0616 0013811 198.2788 325.7640 11.25692219115517
GLOBALSTAR M028         
1 25875U 99041D   25102.53509024 -.00000114  00000+0 -94004-4 0  9996
2 25875  51.9654  28.8262 0062883 289.3199  70.0869 12.50580511181991
